OBJECT_NAME,OBJECT_ID,EPOCH,MEAN_MOTION,ECCENTRICITY,INCLINATION,RA_OF_ASC_NODE,ARG_OF_PERICENTER,MEAN_ANOMALY,EPHEMERIS_TYPE,CLASSIFICATION_TYPE,NORAD_CAT_ID,ELEMENT_SET_NO,REV_AT_EPOCH,BSTAR,MEAN_MOTION_DOT,MEAN_MOTION_DDOT
ONEWEB-0158,2021-025N,2026-07-22T07:44:12.247008,13.13471520,.00019038,87.8989,313.2286,108.7457,251.3879,0,U,48054,999,25824,-.23493973E-3,-.73E-6,0
ONEWEB-0157,2021-025P,2026-07-21T08:34:42.586176,13.13472250,.00022765,87.8985,313.4254,94.2419,265.8971,0,U,48055,999,25805,.23535744E-3,.99E-6,0
ONEWEB-0162,2021-025Q,2026-07-21T17:08:53.300256,13.13469256,.00018596,87.8985,313.3544,95.9139,264.2202,0,U,48056,999,25807,-.69036786E-3,-.239E-5,0
ONEWEB-0155,2021-025R,2026-07-22T00:37:35.168736,13.13468688,.00019839,87.8988,313.2893,97.1512,262.9843,0,U,48057,999,25825,-.12898168E-2,-.458E-5,0
ONEWEB-0149,2021-025S,2026-07-21T17:50:31.428384,13.13470660,.00018264,87.8986,313.3497,94.9729,265.1608,0,U,48058,999,25802,.30522323E-3,.124E-5,0
ONEWEB-0148,2021-025T,2026-07-22T07:34:27.425280,13.13469571,.00017475,87.8982,313.2408,82.5205,277.6123,0,U,48059,999,25822,.25656297E-3,.106E-5,0
ONEWEB-0160,2021-025U,2026-07-21T17:21:15.383808,13.13470121,.00016099,87.8979,313.3544,121.5489,238.5797,0,U,48060,999,25809,-.91920279E-3,-.323E-5,0
ONEWEB-0163,2021-025V,2026-07-22T00:18:06.717600,13.13469533,.00022014,87.8990,313.2941,95.3818,264.7563,0,U,48061,999,25825,-.29738256E-3,-.96E-6,0
ONEWEB-0159,2021-025W,2026-07-22T07:24:42.374592,13.13469542,.00021813,87.8990,313.2292,96.5548,263.5829,0,U,48062,999,25821,.42751379E-3,.169E-5,0
ONEWEB-0164,2021-025X,2026-07-22T01:28:48.324288,13.13470009,.00019296,87.8989,313.2847,102.4487,257.6859,0,U,48063,999,25816,.82467467E-3,.314E-5,0
ONEWEB-0167,2021-025Y,2026-07-21T17:00:33.218784,13.13469533,.00026082,87.8981,313.3610,103.1600,256.9820,0,U,48064,999,25810,-.38639918E-3,-.128E-5,0
ONEWEB-0166,2021-025Z,2026-07-22T06:21:19.400832,13.13470458,.00019441,87.8989,313.2257,98.1283,262.0067,0,U,48065,999,25825,-.62257831E-3,-.215E-5,0
ONEWEB-0151,2021-025AA,2026-07-21T17:35:52.790496,13.13470666,.00020731,87.8989,313.3461,102.3769,257.7593,0,U,48066,999,25812,-.51993591E-3,-.177E-5,0
ONEWEB-0170,2021-025AB,2026-07-21T08:39:35.792352,13.13470303,.00020238,87.8989,313.4221,115.5142,244.6196,0,U,48067,999,25803,.53604383E-3,.209E-5,0
ONEWEB-0168,2021-025AC,2026-07-22T04:24:18.637056,13.13469822,.0002022,87.8988,313.2599,100.3100,259.8257,0,U,48068,999,25815,-.73270412E-3,-.255E-5,0
ONEWEB-0173,2021-025AD,2026-07-21T17:13:56.959968,13.13469701,.00023218,87.8983,313.3519,97.1989,262.9404,0,U,48069,999,25833,-.90027559E-3,-.316E-5,0
ONEWEB-0171,2021-025AE,2026-07-21T18:07:35.029920,13.13470073,.00020029,87.8979,313.3517,102.1734,257.9619,0,U,48070,999,25815,.84173754E-3,.32E-5,0
ONEWEB-0172,2021-025AF,2026-07-21T17:38:18.750336,13.13471301,.00021352,87.8991,313.3485,101.0571,259.0799,0,U,48071,999,25904,-.36363757E-3,-.12E-5,0
ONEWEB-0174,2021-025AG,2026-07-21T17:11:31.049376,13.13469317,.00019359,87.8990,313.3508,95.5210,264.6140,0,U,48072,999,25836,-.81774596E-3,-.286E-5,0
ONEWEB-0175,2021-025AH,2026-07-21T17:55:23.626272,13.13470402,.0002182,87.8987,313.3304,107.7911,252.3456,0,U,48073,999,25802,.51993252E-3,.203E-5,0
ONEWEB-0177,2021-025AJ,2026-07-22T01:31:14.474208,13.13469900,.00020504,87.8987,313.2849,93.9548,266.1816,0,U,48074,999,25825,.71500547E-3,.274E-5,0
ONEWEB-0178,2021-025AK,2026-07-22T07:27:20.200608,13.13470532,.00022101,87.8978,313.2446,100.5929,259.5450,0,U,48075,999,25833,.4204764E-3,.166E-5,0
ONEWEB-0108,2021-025AL,2026-07-21T17:40:45.962112,13.13470422,.00017251,87.8990,313.3422,99.5489,260.5836,0,U,48076,999,25818,-.30558581E-3,-.99E-6,0
ONEWEB-0169,2021-025AM,2026-07-21T07:28:54.730848,13.13469824,.00019225,87.8989,313.4322,95.1108,265.0240,0,U,48077,999,25678,.57445359E-3,.223E-5,0
ONEWEB-0176,2021-031A,2026-07-22T04:38:10.332960,13.14502888,.00021279,87.8959,282.7248,99.3225,260.8146,0,U,48210,999,25291,.10650263E-3,.52E-6,0
ONEWEB-0184,2021-031B,2026-07-22T03:59:21.108192,13.14502763,.00028008,87.8965,282.7328,108.7865,251.3569,0,U,48211,999,25288,-.63323876E-3,-.222E-5,0
ONEWEB-0179,2021-031C,2026-07-22T04:36:59.933376,14.25576898,.02226432,87.8984,278.5488,142.7528,218.9346,0,U,48212,999,25403,.77910336E-4,.261E-5,0
ONEWEB-0180,2021-031D,2026-07-22T04:03:55.029888,13.14503151,.00024467,87.8967,282.7289,96.3863,263.7545,0,U,48213,999,25281,-.39673748E-3,-.134E-5,0
ONEWEB-0218,2021-031E,2026-07-22T04:35:52.607040,13.14503768,.00028921,87.8970,282.7244,103.8464,256.2988,0,U,48214,999,25297,-.62511215E-4,-.1E-6,0
ONEWEB-0209,2021-031F,2026-07-22T04:19:54.054336,13.14503802,.0002206,87.8959,282.7401,93.5693,266.5689,0,U,48215,999,25297,-.50975061E-3,-.176E-5,0
