ONEWEB-0158             
1 48054U 21025N   26203.32236397 -.00000073  00000+0 -23494-3 0  9995
2 48054  87.8989 313.2286 0001903 108.7457 251.3879 13.13471520258245
ONEWEB-0157             
1 48055U 21025P   26202.35743734  .00000099  00000+0  23536-3 0  9999
2 48055  87.8985 313.4254 0002276  94.2419 265.8971 13.13472250258053
ONEWEB-0162             
1 48056U 21025Q   26202.71450579 -.00000239  00000+0 -69037-3 0  9996
2 48056  87.8985 313.3544 0001859  95.9139 264.2202 13.13469256258072
ONEWEB-0155             
1 48057U 21025R   26203.02610149 -.00000458  00000+0 -12898-2 0  9998
2 48057  87.8988 313.2893 0001983  97.1512 262.9843 13.13468688258253
ONEWEB-0149             
1 48058U 21025S   26202.74341931  .00000124  00000+0  30522-3 0  9990
2 48058  87.8986 313.3497 0001826  94.9729 265.1608 13.13470660258026
ONEWEB-0148             
1 48059U 21025T   26203.31559520  .00000106  00000+0  25656-3 0  9992
2 48059  87.8982 313.2408 0001747  82.5205 277.6123 13.13469571258229
ONEWEB-0160             
1 48060U 21025U   26202.72309472 -.00000323  00000+0 -91920-3 0  9997
2 48060  87.8979 313.3544 0001609 121.5489 238.5797 13.13470121258095
ONEWEB-0163             
1 48061U 21025V   26203.01257775 -.00000096  00000+0 -29738-3 0  9994
2 48061  87.8990 313.2941 0002201  95.3818 264.7563 13.13469533258257
ONEWEB-0159             
1 48062U 21025W   26203.30882378  .00000169  00000+0  42751-3 0  9999
2 48062  87.8990 313.2292 0002181  96.5548 263.5829 13.13469542258215
ONEWEB-0164             
1 48063U 21025X   26203.06167042  .00000314  00000+0  82467-3 0  9997
2 48063  87.8989 313.2847 0001929 102.4487 257.6859 13.13470009258169
ONEWEB-0167             
1 48064U 21025Y   26202.70871781 -.00000128  00000+0 -38640-3 0  9999
2 48064  87.8981 313.3610 0002608 103.1600 256.9820 13.13469533258105
ONEWEB-0166             
1 48065U 21025Z   26203.26480788 -.00000215  00000+0 -62258-3 0  9994
2 48065  87.8989 313.2257 0001944  98.1283 262.0067 13.13470458258257
ONEWEB-0151             
1 48066U 21025AA  26202.73324989 -.00000177  00000+0 -51994-3 0  9998
2 48066  87.8989 313.3461 0002073 102.3769 257.7593 13.13470666258129
ONEWEB-0170             
1 48067U 21025AB  26202.36083093  .00000209  00000+0  53604-3 0  9990
2 48067  87.8989 313.4221 0002023 115.5142 244.6196 13.13470303258033
ONEWEB-0168             
1 48068U 21025AC  26203.18354904 -.00000255  00000+0 -73270-3 0  9998
2 48068  87.8988 313.2599 0002022 100.3100 259.8257 13.13469822258157
ONEWEB-0173             
1 48069U 21025AD  26202.71802037 -.00000316  00000+0 -90028-3 0  9990
2 48069  87.8983 313.3519 0002321  97.1989 262.9404 13.13469701258331
ONEWEB-0171             
1 48070U 21025AE  26202.75526655  .00000320  00000+0  84174-3 0  9993
2 48070  87.8979 313.3517 0002002 102.1734 257.9619 13.13470073258153
ONEWEB-0172             
1 48071U 21025AF  26202.73493924 -.00000120  00000+0 -36364-3 0  9992
2 48071  87.8991 313.3485 0002135 101.0571 259.0799 13.13471301259042
ONEWEB-0174             
1 48072U 21025AG  26202.71633159 -.00000286  00000+0 -81775-3 0  9996
2 48072  87.8990 313.3508 0001935  95.5210 264.6140 13.13469317258362
ONEWEB-0175             
1 48073U 21025AH  26202.74680123  .00000203  00000+0  51993-3 0  9999
2 48073  87.8987 313.3304 0002182 107.7911 252.3456 13.13470402258026
ONEWEB-0177             
1 48074U 21025AJ  26203.06336197  .00000274  00000+0  71501-3 0  9990
2 48074  87.8987 313.2849 0002050  93.9548 266.1816 13.13469900258255
ONEWEB-0178             
1 48075U 21025AK  26203.31065047  .00000166  00000+0  42048-3 0  9996
2 48075  87.8978 313.2446 0002210 100.5929 259.5450 13.13470532258337
ONEWEB-0108             
1 48076U 21025AL  26202.73664308 -.00000099  00000+0 -30559-3 0  9998
2 48076  87.8990 313.3422 0001725  99.5489 260.5836 13.13470422258186
ONEWEB-0169             
1 48077U 21025AM  26202.31174457  .00000223  00000+0  57445-3 0  9994
2 48077  87.8989 313.4322 0001922  95.1108 265.0240 13.13469824256781
ONEWEB-0176             
1 48210U 21031A   26203.19317515  .00000052  00000+0  10650-3 0  9998
2 48210  87.8959 282.7248 0002127  99.3225 260.8146 13.14502888252914
ONEWEB-0184             
1 48211U 21031B   26203.16621653 -.00000222  00000+0 -63324-3 0  9994
2 48211  87.8965 282.7328 0002800 108.7865 251.3569 13.14502763252886
ONEWEB-0179             
1 48212U 21031C   26203.19236034  .00000261  00000+0  77910-4 0  9991
2 48212  87.8984 278.5488 0222643 142.7528 218.9346 14.25576898254035
ONEWEB-0180             
1 48213U 21031D   26203.16938692 -.00000134  00000+0 -39674-3 0  9993
2 48213  87.8967 282.7289 0002446  96.3863 263.7545 13.14503151252818
ONEWEB-0218             
1 48214U 21031E   26203.19158110 -.00000010  00000+0 -62511-4 0  9996
2 48214  87.8970 282.7244 0002892 103.8464 256.2988 13.14503768252979
ONEWEB-0209             
1 48215U 21031F   26203.18048674 -.00000176  00000+0 -50975-3 0  9992
2 48215  87.8959 282.7401 0002206  93.5693 266.5689 13.14503802252971
